STARLINK-30263          
1 57642U 23122L   26068.44532009  .00000526  00000+0  29304-4 0  9997
2 57642  43.0011  93.5321 0001286 265.2703  94.8002 15.26738900142179
STRIX-4                 
1 60352U 24137A   26068.65404516  .00020530  00000+0  71820-3 0  9996
2 60352  43.0134 129.8162 0016840   5.2738 354.8289 15.29026223 88766
